0 DMSP 5D-2 F11 DEB
1 28314U 91082AB  13282.51638308  .00031974  00000-0  46302-2 0  2037
2 28314 098.9218 207.5660 0083277 299.2110 114.8610 14.73642370501042
0 DMSP 5D-2 F11 DEB
1 28314U 91082AB  13283.07324495  .00028296  00000-0  40996-2 0  2045
2 28314 098.9218 208.1782 0083190 297.4465 189.1157 14.73659123501125
0 DMSP 5D-2 F11 DEB
1 28314U 91082AB  13283.66033125  .00021078  00000-0  30565-2 0  2050
2 28314 098.9229 208.8218 0083770 295.9801 063.3286 14.73668423501218
0 DMSP 5D-2 F11 DEB
1 28314U 91082AB  13284.09143323  .00027614  00000-0  39978-2 0  2059
2 28314 098.9218 209.2978 0083054 294.1912 190.9475 14.73704266501272
0 DMSP 5D-2 F11 DEB
1 28314U 91082AB  13285.50387843  .00022478  00000-0  32546-2 0  2061
2 28314 098.9219 210.8511 0082839 289.7064 124.6799 14.73765237501483
0 DMSP 5D-2 F11 DEB
1 28314U 91082AB  13287.74448082  .00029960  00000-0  43224-2 0  2071
2 28314 098.9226 213.3150 0082569 282.4598 132.9539 14.73858182501813
0 DMSP 5D-2 F11 DEB
1 28314U 91082AB  13288.49053447  .00034575  00000-0  49788-2 0  2081
2 28314 098.9228 214.1356 0082310 280.0947 131.5570 14.73912558501928
0 DMSP 5D-2 F11 DEB
1 28314U 91082AB  13289.50967308  .00030296  00000-0  43616-2 0  2095
2 28314 098.9233 215.2565 0082189 276.8028 139.4162 14.73965995502079
0 DMSP 5D-2 F11 DEB
1 28314U 91082AB  13290.73150034  .00032429  00000-0  46607-2 0  2107
2 28314 098.9237 216.6005 0082041 272.8626 143.0319 14.74027884502256
0 DMSP 5D-2 F11 DEB
1 28314U 91082AB  13292.10030622  .00024941  00000-0  35852-2 0  2111
2 28314 098.9239 218.1062 0081870 268.4409 206.9436 14.74098815502450
0 DMSP 5D-2 F11 DEB
1 28314U 91082AB  13294.73637646  .00032660  00000-0  46754-2 0  2122
2 28314 098.9237 221.0071 0081597 259.9238 156.8377 14.74217420502847
0 DMSP 5D-2 F11 DEB
1 28314U 91082AB  13295.75508061  .00029577  00000-0  42318-2 0  2139
2 28314 098.9236 222.1284 0081590 256.6313 163.5126 14.74267420502993
